GLOBALSTAR M094         
1 39074U 13005C   24214.90674420 -.00000088  00000+0  89651-4 0  9996
2 39074  51.9962  74.2316 0000574  50.8608 309.2309 12.62266360532070
GLOBALSTAR M096         
1 39075U 13005D   24214.44490743 -.00000105  00000+0 -59024-5 0  9993
2 39075  52.0069 123.9037 0000371   9.6215 350.4659 12.62268043530911
GLOBALSTAR M078         
1 39076U 13005E   24214.65609247 -.00000098  00000+0  30713-4 0  9991
2 39076  51.9846 208.2051 0000935 180.4635 179.6231 12.62273533529775
GLOBALSTAR M095         
1 39077U 13005F   24214.52392797 -.00000101  00000+0  16947-4 0  9995
2 39077  51.9773 205.9616 0000538 226.2908 133.7914 12.62262786529404
GLOBALSTAR M087         
1 52888U 22064A   24214.54019936 -.00000088  00000+0  77600-4 0  9995
2 52888  51.9765  50.2363 0010061 116.8706 243.3224 13.37579910103595
